[{"OBJECT_NAME":"HTV-X1","OBJECT_ID":"2025-241A","EPOCH":"2026-03-05T06:05:40.876512","MEAN_MOTION":15.48454548,"ECCENTRICITY":0.00081607,"INCLINATION":51.6314,"RA_OF_ASC_NODE":94.2866,"ARG_OF_PERICENTER":158.8383,"MEAN_ANOMALY":201.2944,"EPHEMERIS_TYPE":0,"CLASSIFICATION_TYPE":"U","NORAD_CAT_ID":66174,"ELEMENT_SET_NO":999,"REV_AT_EPOCH":55447,"BSTAR":0.00016717327,"MEAN_MOTION_DOT":8.604e-5,"MEAN_MOTION_DDOT":0},{"OBJECT_NAME":"SZ-21 MODULE","OBJECT_ID":"2025-246C","EPOCH":"2026-03-05T04:05:15.475200","MEAN_MOTION":15.68139607,"ECCENTRICITY":0.00014689,"INCLINATION":41.4734,"RA_OF_ASC_NODE":231.173,"ARG_OF_PERICENTER":290.314,"MEAN_ANOMALY":69.7543,"EPHEMERIS_TYPE":0,"CLASSIFICATION_TYPE":"U","NORAD_CAT_ID":66515,"ELEMENT_SET_NO":999,"REV_AT_EPOCH":1736,"BSTAR":0.00035896004,"MEAN_MOTION_DOT":0.00041059,"MEAN_MOTION_DDOT":0},{"OBJECT_NAME":"SHENZHOU-22","OBJECT_ID":"2025-272A","EPOCH":"2026-03-04T21:58:42.573792","MEAN_MOTION":15.60409426,"ECCENTRICITY":0.00068036,"INCLINATION":41.4655,"RA_OF_ASC_NODE":237.2033,"ARG_OF_PERICENTER":243.7897,"MEAN_ANOMALY":116.2243,"EPHEMERIS_TYPE":0,"CLASSIFICATION_TYPE":"U","NORAD_CAT_ID":66645,"ELEMENT_SET_NO":999,"REV_AT_EPOCH":26752,"BSTAR":0.00026479219,"MEAN_MOTION_DOT":0.00022117,"MEAN_MOTION_DDOT":0},{"OBJECT_NAME":"SOYUZ-MS 28","OBJECT_ID":"2025-275A","EPOCH":"2026-03-05T06:05:40.876512","MEAN_MOTION":15.48454548,"ECCENTRICITY":0.00081607,"INCLINATION":51.6314,"RA_OF_ASC_NODE":94.2866,"ARG_OF_PERICENTER":158.8383,"MEAN_ANOMALY":201.2944,"EPHEMERIS_TYPE":0,"CLASSIFICATION_TYPE":"U","NORAD_CAT_ID":66664,"ELEMENT_SET_NO":999,"REV_AT_EPOCH":55452,"BSTAR":0.00016717327,"MEAN_MOTION_DOT":8.604e-5,"MEAN_MOTION_DDOT":0},{"OBJECT_NAME":"DUPLEX","OBJECT_ID":"1998-067XS","EPOCH":"2026-03-04T09:12:56.728224","MEAN_MOTION":15.55826494,"ECCENTRICITY":0.00020746,"INCLINATION":51.6284,"RA_OF_ASC_NODE":95.9816,"ARG_OF_PERICENTER":91.8511,"MEAN_ANOMALY":268.2718,"EPHEMERIS_TYPE":0,"CLASSIFICATION_TYPE":"U","NORAD_CAT_ID":66906,"ELEMENT_SET_NO":999,"REV_AT_EPOCH":1430,"BSTAR":0.00060283877,"MEAN_MOTION_DOT":0.00042212,"MEAN_MOTION_DDOT":0},{"OBJECT_NAME":"ISS OBJECT XT","OBJECT_ID":"1998-067XT","EPOCH":"2026-03-05T06:00:20.254752","MEAN_MOTION":15.67725621,"ECCENTRICITY":0.00046582,"INCLINATION":51.625,"RA_OF_ASC_NODE":88.2545,"ARG_OF_PERICENTER":50.5727,"MEAN_ANOMALY":309.5681,"EPHEMERIS_TYPE":0,"CLASSIFICATION_TYPE":"U","NORAD_CAT_ID":66907,"ELEMENT_SET_NO":999,"REV_AT_EPOCH":1448,"BSTAR":0.0013383571,"MEAN_MOTION_DOT":0.00151937,"MEAN_MOTION_DDOT":0},{"OBJECT_NAME":"ISS OBJECT XU","OBJECT_ID":"1998-067XU","EPOCH":"2026-03-04T07:01:15.985632","MEAN_MOTION":15.67514512,"ECCENTRICITY":0.0004676,"INCLINATION":51.6245,"RA_OF_ASC_NODE":93.1068,"ARG_OF_PERICENTER":47.0078,"MEAN_ANOMALY":313.1309,"EPHEMERIS_TYPE":0,"CLASSIFICATION_TYPE":"U","NORAD_CAT_ID":66908,"ELEMENT_SET_NO":999,"REV_AT_EPOCH":1433,"BSTAR":0.0016844747,"MEAN_MOTION_DOT":0.00190633,"MEAN_MOTION_DDOT":0},{"OBJECT_NAME":"SILVERSAT","OBJECT_ID":"1998-067XV","EPOCH":"2026-03-05T06:10:54.547392","MEAN_MOTION":15.70352988,"ECCENTRICITY":0.0005476,"INCLINATION":51.6245,"RA_OF_ASC_NODE":87.5489,"ARG_OF_PERICENTER":49.7289,"MEAN_ANOMALY":310.4186,"EPHEMERIS_TYPE":0,"CLASSIFICATION_TYPE":"U","NORAD_CAT_ID":66909,"ELEMENT_SET_NO":999,"REV_AT_EPOCH":1449,"BSTAR":0.001501994,"MEAN_MOTION_DOT":0.00191073,"MEAN_MOTION_DDOT":0},{"OBJECT_NAME":"ISS OBJECT XW","OBJECT_ID":"1998-067XW","EPOCH":"2026-03-05T05:50:33.028512","MEAN_MOTION":15.6720952,"ECCENTRICITY":0.00050131,"INCLINATION":51.6243,"RA_OF_ASC_NODE":88.2007,"ARG_OF_PERICENTER":60.2296,"MEAN_ANOMALY":299.9198,"EPHEMERIS_TYPE":0,"CLASSIFICATION_TYPE":"U","NORAD_CAT_ID":66910,"ELEMENT_SET_NO":999,"REV_AT_EPOCH":1448,"BSTAR":0.0012518115,"MEAN_MOTION_DOT":0.00138907,"MEAN_MOTION_DDOT":0},{"OBJECT_NAME":"ISS OBJECT XX","OBJECT_ID":"1998-067XX","EPOCH":"2026-03-05T06:18:19.559232","MEAN_MOTION":15.72994724,"ECCENTRICITY":0.00070339,"INCLINATION":51.6211,"RA_OF_ASC_NODE":86.8172,"ARG_OF_PERICENTER":56.492,"MEAN_ANOMALY":303.6749,"EPHEMERIS_TYPE":0,"CLASSIFICATION_TYPE":"U","NORAD_CAT_ID":66911,"ELEMENT_SET_NO":999,"REV_AT_EPOCH":1449,"BSTAR":0.0016579539,"MEAN_MOTION_DOT":0.00237316,"MEAN_MOTION_DDOT":0},{"OBJECT_NAME":"ISS OBJECT XY","OBJECT_ID":"1998-067XY","EPOCH":"2026-03-05T02:33:27.511488","MEAN_MOTION":15.62727645,"ECCENTRICITY":0.00030458,"INCLINATION":51.6265,"RA_OF_ASC_NODE":90.3029,"ARG_OF_PERICENTER":62.7739,"MEAN_ANOMALY":297.3566,"EPHEMERIS_TYPE":0,"CLASSIFICATION_TYPE":"U","NORAD_CAT_ID":66912,"ELEMENT_SET_NO":999,"REV_AT_EPOCH":1443,"BSTAR":0.0010104091,"MEAN_MOTION_DOT":0.00093092,"MEAN_MOTION_DDOT":0},{"OBJECT_NAME":"ISS OBJECT XZ","OBJECT_ID":"1998-067XZ","EPOCH":"2026-03-04T07:37:01.846272","MEAN_MOTION":15.5133766,"ECCENTRICITY":0.00094914,"INCLINATION":51.6304,"RA_OF_ASC_NODE":98.5346,"ARG_OF_PERICENTER":167.7937,"MEAN_ANOMALY":192.3284,"EPHEMERIS_TYPE":0,"CLASSIFICATION_TYPE":"U","NORAD_CAT_ID":67683,"ELEMENT_SET_NO":999,"REV_AT_EPOCH":395,"BSTAR":0.00087420501,"MEAN_MOTION_DOT":0.00052289,"MEAN_MOTION_DDOT":0},{"OBJECT_NAME":"GXIBA-1","OBJECT_ID":"1998-067YA","EPOCH":"2026-03-05T06:18:31.131648","MEAN_MOTION":15.53528738,"ECCENTRICITY":0.00109077,"INCLINATION":51.63,"RA_OF_ASC_NODE":93.5981,"ARG_OF_PERICENTER":161.0219,"MEAN_ANOMALY":199.118,"EPHEMERIS_TYPE":0,"CLASSIFICATION_TYPE":"U","NORAD_CAT_ID":67684,"ELEMENT_SET_NO":999,"REV_AT_EPOCH":410,"BSTAR":0.0012155444,"MEAN_MOTION_DOT":0.00079219,"MEAN_MOTION_DDOT":0},{"OBJECT_NAME":"CORAL","OBJECT_ID":"1998-067YB","EPOCH":"2026-03-05T02:05:11.189184","MEAN_MOTION":15.51717466,"ECCENTRICITY":0.00113652,"INCLINATION":51.6309,"RA_OF_ASC_NODE":94.6739,"ARG_OF_PERICENTER":166.7274,"MEAN_ANOMALY":193.4017,"EPHEMERIS_TYPE":0,"CLASSIFICATION_TYPE":"U","NORAD_CAT_ID":67685,"ELEMENT_SET_NO":999,"REV_AT_EPOCH":407,"BSTAR":0.00078666166,"MEAN_MOTION_DOT":0.00047663,"MEAN_MOTION_DDOT":0},{"OBJECT_NAME":"ISS OBJECT YC","OBJECT_ID":"1998-067YC","EPOCH":"2026-03-05T01:59:19.055616","MEAN_MOTION":15.52157473,"ECCENTRICITY":0.00077438,"INCLINATION":51.6311,"RA_OF_ASC_NODE":94.6478,"ARG_OF_PERICENTER":134.4449,"MEAN_ANOMALY":225.7176,"EPHEMERIS_TYPE":0,"CLASSIFICATION_TYPE":"U","NORAD_CAT_ID":67686,"ELEMENT_SET_NO":999,"REV_AT_EPOCH":407,"BSTAR":0.00090337252,"MEAN_MOTION_DOT":0.00055661,"MEAN_MOTION_DDOT":0},{"OBJECT_NAME":"LEOPARD","OBJECT_ID":"1998-067YD","EPOCH":"2026-03-04T07:34:28.800768","MEAN_MOTION":15.51484974,"ECCENTRICITY":0.00077812,"INCLINATION":51.6306,"RA_OF_ASC_NODE":98.5236,"ARG_OF_PERICENTER":136.2386,"MEAN_ANOMALY":223.9221,"EPHEMERIS_TYPE":0,"CLASSIFICATION_TYPE":"U","NORAD_CAT_ID":67687,"ELEMENT_SET_NO":999,"REV_AT_EPOCH":387,"BSTAR":0.00094368384,"MEAN_MOTION_DOT":0.00056781,"MEAN_MOTION_DDOT":0}]
